NORAD_CAT_ID,OBJECT_NAME,OBJECT_TYPE,EPOCH,MEAN_MOTION,ECCENTRICITY,INCLINATION,RA_OF_ASC_NODE,ARG_OF_PERICENTER,MEAN_ANOMALY,BSTAR,MEAN_MOTION_DOT,MEAN_MOTION_DDOT,TLE_LINE0,TLE_LINE1,TLE_LINE2,SEMIMAJOR_AXIS,PERIOD,APOGEE,PERIGEE,DECAYED
53613.0,STARLINK-4655,PAYLOAD,2023-05-27 15:28:36,15.08838204,0.0001186,53.2157,119.9638,84.8193,275.2934,4.6772e-05,4.57e-06,0.0,0 STARLINK-4655,1 53613U 22104AB  23147.64486440  .00000457  00000-0  46772-4 0  9996,2 53613  53.2157 119.9638 0001186  84.8193 275.2934 15.08838204 42095,6917.886,95.438,540.571,538.93,0.0
53613.0,STARLINK-4655,PAYLOAD,2023-05-28 04:11:41,15.08840581,0.0001201,53.2156,117.5842,87.2526,272.8604,3.9482e-05,3.41e-06,0.0,0 STARLINK-4655,1 53613U 22104AB  23148.17478366  .00000341  00000-0  39482-4 0  9995,2 53613  53.2156 117.5842 0001201  87.2526 272.8604 15.08840581 42177,6917.879,95.438,540.574,538.913,0.0
53613.0,STARLINK-4655,PAYLOAD,2023-05-28 15:19:23,15.08840887,0.0001234,53.2159,115.5024,87.52,272.5933,6.2754e-05,7.11e-06,0.0,0 STARLINK-4655,1 53613U 22104AB  23148.63846242  .00000711  00000-0  62754-4 0  9997,2 53613  53.2159 115.5024 0001234  87.5200 272.5933 15.08840887 41673,6917.878,95.437,540.596,538.889,0.0
53613.0,STARLINK-4655,PAYLOAD,2023-05-29 04:02:28,15.08842482,0.0001204,53.2156,113.1227,91.4084,268.7046,5.5989e-05,6.03e-06,0.0,0 STARLINK-4655,1 53613U 22104AB  23149.16838090  .00000603  00000-0  55989-4 0  9990,2 53613  53.2156 113.1227 0001204  91.4084 268.7046 15.08842482 42328,6917.873,95.437,540.571,538.905,0.0
53613.0,STARLINK-4655,PAYLOAD,2023-05-29 21:31:43,15.08825508,0.0001218,53.2158,109.8511,95.2029,264.9102,6.6054e-05,7.63e-06,0.0,0 STARLINK-4655,1 53613U 22104AB  23149.89703211  .00000763  00000-0  66054-4 0  9998,2 53613  53.2158 109.8511 0001218  95.2029 264.9102 15.08825508 42437,6917.925,95.438,540.632,538.947,0.0
53613.0,STARLINK-4655,PAYLOAD,2023-05-30 00:42:29,15.08842468,0.0001275,53.2159,109.256,91.3567,268.7571,-0.00017605,-3.089e-05,0.0,0 STARLINK-4655,1 53613U 22104AB  23150.02950914 -.00003089  00000-0 -17605-3 0  9992,2 53613  53.2159 109.2560 0001275  91.3567 268.7571 15.08842468 41887,6917.873,95.437,540.62,538.856,0.0
53613.0,STARLINK-4655,PAYLOAD,2023-05-30 03:53:16,15.08834189,0.0001211,53.2161,108.6613,95.2904,264.8226,-3.8482e-05,-9e-06,0.0,0 STARLINK-4655,1 53613U 22104AB  23150.16199076 -.00000900  00000-0 -38482-4 0  9997,2 53613  53.2161 108.6613 0001211  95.2904 264.8226 15.08834189 42471,6917.898,95.438,540.601,538.925,0.0
53613.0,STARLINK-4655,PAYLOAD,2023-05-30 21:22:30,15.08840055,0.0001177,53.2165,105.3889,99.0837,261.0288,5.818e-06,-1.95e-06,0.0,0 STARLINK-4655,1 53613U 22104AB  23150.89062658 -.00000195  00000-0  58180-5 0  9995,2 53613  53.2165 105.3889 0001177  99.0837 261.0288 15.08840055 42580,6917.88,95.438,540.559,538.931,0.0
53613.0,STARLINK-4655,PAYLOAD,2023-05-31 02:08:39,15.0884549,0.0001209,53.2164,104.4997,93.3216,266.7914,4.9217e-05,4.96e-06,0.0,0 STARLINK-4655,1 53613U 22104AB  23151.08934146  .00000496  00000-0  49217-4 0  9990,2 53613  53.2164 104.4997 0001209  93.3216 266.7914 15.08845490 42040,6917.864,95.437,540.565,538.892,0.0
53613.0,STARLINK-4655,PAYLOAD,2023-05-31 03:44:02,15.08846567,0.0001175,53.2165,104.2036,85.309,274.8036,7.6447e-05,9.29e-06,0.0,0 STARLINK-4655,1 53613U 22104AB  23151.15558044  .00000929  00000-0  76447-4 0  9993,2 53613  53.2165 104.2036 0001175  85.3090 274.8036 15.08846567 42621,6917.86,95.437,540.538,538.912,0.0
53613.0,STARLINK-4655,PAYLOAD,2023-05-31 21:13:17,15.08827898,0.0001029,53.2158,100.9354,69.3808,290.7294,8.9707e-05,1.14e-05,0.0,0 STARLINK-4655,1 53613U 22104AB  23151.88423260  .00001140  00000-0  89707-4 0  9993,2 53613  53.2158 100.9354 0001029  69.3808 290.7294 15.08827898 42737,6917.917,95.438,540.494,539.071,0.0
53613.0,STARLINK-4655,PAYLOAD,2023-06-01 01:59:26,15.08832361,0.000112,53.2161,100.0397,77.2952,282.8165,7.0272e-05,8.31e-06,0.0,0 STARLINK-4655,1 53613U 22104AB  23152.08295123  .00000831  00000-0  70272-4 0  9994,2 53613  53.2161 100.0397 0001120  77.2952 282.8165 15.08832361 42199,6917.904,95.438,540.544,538.994,0.0
53613.0,STARLINK-4655,PAYLOAD,2023-06-01 03:34:49,15.08835458,0.000125,53.2167,99.743,88.0404,272.0731,8.0208e-05,9.89e-06,0.0,0 STARLINK-4655,1 53613U 22104AB  23152.14918941  .00000989  00000-0  80208-4 0  9995,2 53613  53.2167  99.7430 0001250  88.0404 272.0731 15.08835458 42777,6917.894,95.438,540.624,538.895,0.0
53613.0,STARLINK-4655,PAYLOAD,2023-06-02 03:25:37,15.0883716,0.0001269,53.2164,95.2842,96.3914,263.7222,-4.119e-05,-9.43e-06,0.0,0 STARLINK-4655,1 53613U 22104AB  23153.14279484 -.00000943  00000-0 -41190-4 0  9997,2 53613  53.2164  95.2842 0001269  96.3914 263.7222 15.08837160 42358,6917.889,95.438,540.632,538.876,0.0
53613.0,STARLINK-4655,PAYLOAD,2023-06-03 04:51:47,15.08841263,0.0001278,53.2161,90.5259,100.7988,259.3148,7.4153e-05,8.92e-06,0.0,0 STARLINK-4655,1 53613U 22104AB  23154.20263121  .00000892  00000-0  74153-4 0  9992,2 53613  53.2161  90.5259 0001278 100.7988 259.3148 15.08841263 42511,6917.877,95.437,540.626,538.857,0.0
53613.0,STARLINK-4655,PAYLOAD,2023-06-04 01:31:48,15.08837363,0.000128,53.2162,86.66,100.4105,259.7032,6.0094e-05,6.69e-06,0.0,0 STARLINK-4655,1 53613U 22104AB  23155.06375530  .00000669  00000-0  60094-4 0  9996,2 53613  53.2162  86.6600 0001280 100.4105 259.7032 15.08837363 42645,6917.888,95.438,540.639,538.868,0.0
53613.0,STARLINK-4655,PAYLOAD,2023-06-04 04:42:34,15.08843034,0.0001302,53.2164,86.0652,98.8126,261.3014,0.00010351,1.36e-05,0.0,0 STARLINK-4655,1 53613U 22104AB  23155.19623059  .00001360  00000-0  10351-3 0  9991,2 53613  53.2164  86.0652 0001302  98.8126 261.3014 15.08843034 43233,6917.871,95.437,540.637,538.835,0.0
53613.0,STARLINK-4655,PAYLOAD,2023-06-05 01:22:35,15.08839361,0.0001376,53.217,82.1971,96.4403,263.6746,-8.9011e-06,-4.3e-06,0.0,0 STARLINK-4655,1 53613U 22104AB  23156.05735709 -.00000430  00000-0 -89011-5 0  9993,2 53613  53.2170  82.1971 0001376  96.4403 263.6746 15.08839361 42799,6917.882,95.438,540.699,538.795,0.0
53613.0,STARLINK-4655,PAYLOAD,2023-06-05 12:30:17,15.08842152,0.0001443,53.2176,80.1157,95.7396,264.3761,4.0053e-05,3.5e-06,0.0,0 STARLINK-4655,1 53613U 22104AB  23156.52103343  .00000350  00000-0  40053-4 0  9999,2 53613  53.2176  80.1157 0001443  95.7396 264.3761 15.08842152 43436,6917.874,95.437,540.737,538.741,0.0
53613.0,STARLINK-4655,PAYLOAD,2023-06-06 01:13:22,15.08846025,0.0001433,53.2178,77.7377,94.296,265.8196,3.1736e-05,2.17e-06,0.0,0 STARLINK-4655,1 53613U 22104AB  23157.05095065  .00000217  00000-0  31736-4 0  9999,2 53613  53.2178  77.7377 0001433  94.2960 265.8196 15.08846025 42940,6917.862,95.437,540.718,538.736,0.0
53613.0,STARLINK-4655,PAYLOAD,2023-06-06 04:24:08,15.08849546,0.000146,53.218,77.1431,94.9738,265.1421,6.2161e-05,7.02e-06,0.0,0 STARLINK-4655,1 53613U 22104AB  23157.18342698  .00000702  00000-0  62161-4 0  9995,2 53613  53.2180  77.1431 0001460  94.9738 265.1421 15.08849546 43539,6917.851,95.437,540.726,538.706,0.0
53613.0,STARLINK-4655,PAYLOAD,2023-06-06 18:42:37,15.08838934,0.0001539,53.2178,74.4674,106.2263,253.8899,-1.3713e-05,-5.06e-06,0.0,0 STARLINK-4655,1 53613U 22104AB  23157.77959578 -.00000506  00000-0 -13713-4 0  9994,2 53613  53.2178  74.4674 0001539 106.2263 253.8899 15.08838934 43051,6917.884,95.438,540.813,538.684,0.0
53613.0,STARLINK-4655,PAYLOAD,2023-06-07 04:14:55,15.08843129,0.0001317,53.2178,72.682,96.5772,263.537,3.9882e-05,3.47e-06,0.0,0 STARLINK-4655,1 53613U 22104AB  23158.17703131  .00000347  00000-0  39882-4 0  9997,2 53613  53.2178  72.6820 0001317  96.5772 263.5370 15.08843129 43687,6917.871,95.437,540.647,538.825,0.0
53613.0,STARLINK-4655,PAYLOAD,2023-06-07 21:44:10,15.08832744,0.0001315,53.2172,69.4099,99.6246,260.4895,-4.594e-05,-1.019e-05,0.0,0 STARLINK-4655,1 53613U 22104AB  23158.90568203 -.00001019  00000-0 -45940-4 0  9998,2 53613  53.2172  69.4099 0001315  99.6246 260.4895 15.08832744 43792,6917.903,95.438,540.677,538.858,0.0
53613.0,STARLINK-4655,PAYLOAD,2023-06-08 00:54:57,15.08833784,0.0001215,53.2181,68.8197,89.086,271.0271,7.0619e-06,-1.75e-06,0.0,0 STARLINK-4655,1 53613U 22104AB  23159.03816079 -.00000175  00000-0  70619-5 0  9993,2 53613  53.2181  68.8197 0001215  89.0860 271.0271 15.08833784 43249,6917.899,95.438,540.605,538.924,0.0
53613.0,STARLINK-4655,PAYLOAD,2023-06-08 04:05:43,15.08840014,0.0001209,53.2172,68.2225,99.8265,260.2864,-3.5672e-05,-8.56e-06,0.0,0 STARLINK-4655,1 53613U 22104AB  23159.17063828 -.00000856  00000-0 -35672-4 0  9990,2 53613  53.2172  68.2225 0001209  99.8265 260.2864 15.08840014 43833,6917.88,95.438,540.582,538.909,0.0
53613.0,STARLINK-4655,PAYLOAD,2023-06-09 10:18:02,15.0884439,0.0001014,53.2173,62.5715,81.143,278.9677,4.4293e-05,4.17e-06,0.0,0 STARLINK-4655,1 53613U 22104AB  23160.42919439  .00000417  00000-0  44293-4 0  9998,2 53613  53.2173  62.5715 0001014  81.1430 278.9677 15.08844390 43454,6917.867,95.437,540.433,539.03,0.0
53613.0,STARLINK-4655,PAYLOAD,2023-06-10 02:11:54,15.08836036,0.0001182,53.2179,59.5999,89.9122,270.2006,2.3164e-05,8.1e-07,0.0,0 STARLINK-4655,1 53613U 22104AB  23161.09160417  .00000081  00000-0  23164-4 0  9997,2 53613  53.2179  59.5999 0001182  89.9122 270.2006 15.08836036 43550,6917.893,95.438,540.575,538.94,0.0
53613.0,STARLINK-4655,PAYLOAD,2023-06-10 10:08:50,15.0883704,0.000112,53.2177,58.113,90.2368,269.8753,1.5906e-05,-3.5e-07,0.0,0 STARLINK-4655,1 53613U 22104AB  23161.42280440 -.00000035  00000-0  15906-4 0  9998,2 53613  53.2177  58.1130 0001120  90.2368 269.8753 15.08837040 44177,6917.889,95.438,540.529,538.98,0.0
53613.0,STARLINK-4655,PAYLOAD,2023-06-11 02:02:40,15.0884934,0.00011,53.2176,55.1397,95.6245,264.4873,3.5549e-05,2.78e-06,0.0,0 STARLINK-4655,1 53613U 22104AB  23162.08519632  .00000278  00000-0  35549-4 0  9992,2 53613  53.2176  55.1397 0001100  95.6245 264.4873 15.08849340 43707,6917.852,95.437,540.478,538.956,0.0
